[{"OBJECT_NAME":"HAWK-10B","OBJECT_ID":"2024-149CF","EPOCH":"2026-03-09T22:24:07.674624","MEAN_MOTION":14.96175068,"ECCENTRICITY":0.00063882,"INCLINATION":97.6865,"RA_OF_ASC_NODE":146.0046,"ARG_OF_PERICENTER":71.247,"MEAN_ANOMALY":288.9444,"EPHEMERIS_TYPE":0,"CLASSIFICATION_TYPE":"U","NORAD_CAT_ID":60545,"ELEMENT_SET_NO":999,"REV_AT_EPOCH":8514,"BSTAR":0.00020768682,"MEAN_MOTION_DOT":2.283e-5,"MEAN_MOTION_DDOT":0},{"OBJECT_NAME":"STARLINK-35840","OBJECT_ID":"2025-280P","EPOCH":"2026-03-09T23:27:17.172576","MEAN_MOTION":14.98341894,"ECCENTRICITY":0.00027132,"INCLINATION":70.0018,"RA_OF_ASC_NODE":333.5414,"ARG_OF_PERICENTER":269.2016,"MEAN_ANOMALY":90.8832,"EPHEMERIS_TYPE":0,"CLASSIFICATION_TYPE":"U","NORAD_CAT_ID":66834,"ELEMENT_SET_NO":999,"REV_AT_EPOCH":1612,"BSTAR":0.0005359238,"MEAN_MOTION_DOT":6.309e-5,"MEAN_MOTION_DDOT":0}]
